{
    "links": {
        "self": "http://www.neowsapp.com/rest/v1/neo/3548530?api_key=iIulBulltgU6a56xZRHN4H3l9WmuAYTsLGpBGhQ2"
    },
    "id": "3548530",
    "neo_reference_id": "3548530",
    "name": "(2010 TH54)",
    "designation": "2010 TH54",
    "nasa_jpl_url": "http://ssd.jpl.nasa.gov/sbdb.cgi?sstr=3548530",
    "absolute_magnitude_h": 23.9,
    "estimated_diameter": {
        "kilometers": {
            "estimated_diameter_min": 0.04411182,
            "estimated_diameter_max": 0.0986370281
        },
        "meters": {
            "estimated_diameter_min": 44.1118199997,
            "estimated_diameter_max": 98.6370281305
        },
        "miles": {
            "estimated_diameter_min": 0.0274098057,
            "estimated_diameter_max": 0.0612901888
        },
        "feet": {
            "estimated_diameter_min": 144.7238235278,
            "estimated_diameter_max": 323.6123073718
        }
    },
    "is_potentially_hazardous_asteroid": false,
    "close_approach_data": [
        {
            "close_approach_date": "2010-10-15",
            "close_approach_date_full": "2010-Oct-15 16:11",
            "epoch_date_close_approach": 1287159060000,
            "relative_velocity": {
                "kilometers_per_second": "8.6889850436",
                "kilometers_per_hour": "31280.3461569801",
                "miles_per_hour": "19436.3906440413"
            },
            "miss_distance": {
                "astronomical": "0.0594194958",
                "lunar": "23.1141838662",
                "kilometers": "8889030.008153946",
                "miles": "5523387.1242026148"
            },
            "orbiting_body": "Earth"
        }
    ],
    "orbital_data": {
        "orbit_id": "13",
        "orbit_determination_date": "2017-04-06 08:56:22",
        "first_observation_date": "2010-10-09",
        "last_observation_date": "2010-10-22",
        "data_arc_in_days": 13,
        "observations_used": 61,
        "orbit_uncertainty": "8",
        "minimum_orbit_intersection": ".0481181",
        "jupiter_tisserand_invariant": "4.490",
        "epoch_osculation": "2455481.5",
        "eccentricity": ".3531830552798929",
        "semi_major_axis": "1.486495377882348",
        "inclination": "8.474792191178373",
        "ascending_node_longitude": "11.43780582744846",
        "orbital_period": "661.978327921808",
        "perihelion_distance": ".9614903986624215",
        "perihelion_argument": "55.23735782630206",
        "aphelion_distance": "2.011500357102275",
        "perihelion_time": "2455521.884094603833",
        "mean_anomaly": "338.0381419690568",
        "mean_motion": ".543824449858006",
        "equinox": "J2000",
        "orbit_class": {
            "orbit_class_type": "APO",
            "orbit_class_description": "Near-Earth asteroid orbits which cross the Earth’s orbit similar to that of 1862 Apollo",
            "orbit_class_range": "a (semi-major axis) > 1.0 AU; q (perihelion) < 1.017 AU"
        }
    },
    "is_sentry_object": false
}